STARLINK-35979          
1 66809U 25278U   25361.72753961  .00120765  00000+0  20256-2 0  9997
2 66809  43.0017 162.4804 0002470 254.6457 105.4130 15.50676069  4189
STARLINK-36046          
1 66810U 25278V   25361.72822589  .00112879  00000+0  18968-2 0  9996
2 66810  43.0020 162.4871 0003075 263.3299  96.7212 15.50656871  4184
STARLINK-36045          
1 66811U 25278W   25361.72788353  .00143082  00000+0  23916-2 0  9996
2 66811  43.0015 162.4844 0003189 265.6374  94.4122 15.50679350  4186
STARLINK-36054          
1 66812U 25278X   25361.72719681  .00135705  00000+0  22699-2 0  9995
2 66812  42.9997 162.4779 0001801 254.7116 105.3545 15.50692446  4185
STARLINK-36042          
1 66813U 25278Y   25361.72685464  .00121528  00000+0  20383-2 0  9993
2 66813  43.0019 162.4746 0002377 248.8594 111.2013 15.50674661  4185
STARLINK-35984          
1 66814U 25278Z   25363.58336806  .00033314  00000+0  80226-3 0  9991
2 66814  42.9999 151.7905 0001694 273.9182 311.4898 15.40662582  5759
STARLINK-35985          
1 66815U 25278AA  25361.78955119  .00081324  00000+0  13744-2 0  9990
2 66815  43.0016 162.0840 0002262 262.4248  97.6355 15.50644265  5405
STARLINK-36098          
1 66816U 25278AB  25361.79092236  .00121798  00000+0  20427-2 0  9990
2 66816  43.0009 162.0953 0003288 254.5726 105.4771 15.50673307  4199
STARLINK-35995          
1 66817U 25278AC  25362.88529996  .00108816  00000+0  18279-2 0  9998
2 66817  42.9970 155.6880 0001302 303.9393  56.1344 15.50687189  4366
STARLINK-35994          
1 66818U 25278AD  25363.58336806  .00031575  00000+0  76078-3 0  9992
2 66818  42.9997 151.9128 0002110 284.0671 251.5594 15.40668291  5660
STARLINK-35989          
1 66819U 25278AE  25363.46468621  .00000064  00000+0  69130-5 0  9993
2 66819  42.9995 152.2931 0001684 265.8976  94.1691 15.50576839  4457
KOMPSAT-7               
1 66820U 25279A   25363.61426992  .00004464  00000+0  35510-3 0  9999
2 66820  97.6459 309.1932 0010114 200.1642 159.9184 15.00878322  4189
